{"type": "FeatureCollection", "features": [ {"type": "Feature", "properties": {"norad_id": 58655, "name": "BEIDOU-3 M26 (C48)", "group": "beidou", "lat": -55.37652335175084, "lon": -28.589945764610462, "alt_km": 21524.655608859786, "timestamp": "2025-12-04T13:52:00.708328+00:00", "meta": {"OBJECT_NAME": "BEIDOU-3 M26 (C48)", "OBJECT_ID": "2023-207B", "EPOCH": "2025-12-03T02:34:45.227424", "MEAN_MOTION": 1.86231091, "ECCENTRICITY": 0.00034591, "INCLINATION": 55.5782, "RA_OF_ASC_NODE": 68.9139, "ARG_OF_PERICENTER": 250.5367, "MEAN_ANOMALY": 109.429, "EPHEMERIS_TYPE": 0, "CLASSIFICATION_TYPE": "U", "NORAD_CAT_ID": 58655, "ELEMENT_SET_NO": 999, "REV_AT_EPOCH": 1317, "BSTAR": 0, "MEAN_MOTION_DOT": -5e-07, "MEAN_MOTION_DDOT": 0}, "tle": {"line1": "1 58655U 23207B   25337.10746791 -.00000050  00000+0  00000+0 0  9992", "line2": "2 58655  55.5782  68.9139 0003459 250.5367 109.4290  1.86231091 13176"}}, "geometry": {"type": "Point", "coordinates": [-28.589945764610462, -55.37652335175084]}}, {"type": "Feature", "properties": {"norad_id": 61186, "name": "BEIDOU-3 M25 (C47)", "group": "beidou", "lat": 18.386739664836625, "lon": -37.377742672860194, "alt_km": 21525.629141002202, "timestamp": "2025-12-04T13:52:00.708339+00:00", "meta": {"OBJECT_NAME": "BEIDOU-3 M25 (C47)", "OBJECT_ID": "2024-168B", "EPOCH": "2025-12-04T06:41:34.097568", "MEAN_MOTION": 1.86229712, "ECCENTRICITY": 0.00055022, "INCLINATION": 54.6499, "RA_OF_ASC_NODE": 309.0133, "ARG_OF_PERICENTER": 294.1783, "MEAN_ANOMALY": 248.0837, "EPHEMERIS_TYPE": 0, "CLASSIFICATION_TYPE": "U", "NORAD_CAT_ID": 61186, "ELEMENT_SET_NO": 999, "REV_AT_EPOCH": 815, "BSTAR": 0, "MEAN_MOTION_DOT": -6.9e-07, "MEAN_MOTION_DDOT": 0}, "tle": {"line1": "1 61186U 24168B   25338.27886687 -.00000069  00000+0  00000+0 0  9990", "line2": "2 61186  54.6499 309.0133 0005502 294.1783 248.0837  1.86229712  8150"}}, "geometry": {"type": "Point", "coordinates": [-37.377742672860194, 18.386739664836625]}}, {"type": "Feature", "properties": {"norad_id": 61187, "name": "BEIDOU-3 M27 (C49)", "group": "beidou", "lat": 18.050311030977486, "lon": 115.59324818947233, "alt_km": 21532.34555417642, "timestamp": "2025-12-04T13:52:00.708350+00:00", "meta": {"OBJECT_NAME": "BEIDOU-3 M27 (C49)", "OBJECT_ID": "2024-168C", "EPOCH": "2025-12-04T01:54:08.310240", "MEAN_MOTION": 1.86229854, "ECCENTRICITY": 0.00022821, "INCLINATION": 54.6454, "RA_OF_ASC_NODE": 309.0039, "ARG_OF_PERICENTER": 329.4527, "MEAN_ANOMALY": 213.9234, "EPHEMERIS_TYPE": 0, "CLASSIFICATION_TYPE": "U", "NORAD_CAT_ID": 61187, "ELEMENT_SET_NO": 999, "REV_AT_EPOCH": 562, "BSTAR": 0, "MEAN_MOTION_DOT": -6.8e-07, "MEAN_MOTION_DDOT": 0}, "tle": {"line1": "1 61187U 24168C   25338.07926285 -.00000068  00000+0  00000+0 0  9997", "line2": "2 61187  54.6454 309.0039 0002282 329.4527 213.9234  1.86229854  5625"}}, "geometry": {"type": "Point", "coordinates": [115.59324818947233, 18.050311030977486]}}]}